     2.11           N: GNSS NAV DATA    C: BDS              RINEX VERSION / TYPE
cnvtToRINEX 2.60.0  convertToRINEX OPR  10-Nov-16 06:31 UTC PGM / RUN BY / DATE 
----------------------------------------------------------- COMMENT             
BDUT    0.000000000000D+00 0.888178419700D-15 503808    0   TIME SYSTEM CORR    
     3                                                      LEAP SECONDS        
                                                            END OF HEADER       
 6 16 11 08 11 00  0.0-0.368710025214D-03-0.362945229426D-10 0.000000000000D+00
    0.100000000000D+01 0.224906250000D+03 0.139077221696D-08-0.152235880051D+01
    0.715209171176D-05 0.498702051118D-02 0.183833763003D-04 0.649284886932D+04
    0.212400000000D+06 0.242143869400D-06 0.261886593272D+01-0.372529029846D-08
    0.946435651598D+00-0.323046875000D+03-0.242458912735D+01-0.200865509712D-08
    0.442161274935D-09 0.000000000000D+00 0.566000000000D+03 0.000000000000D+00
    0.240000000000D+01 0.000000000000D+00 0.979999992268D-08 0.101100000000D+04
    0.212400000000D+06 0.000000000000D+00 0.000000000000D+00 0.000000000000D+00
 9 16 11 08 11 00  0.0 0.294790370390D-04-0.462963001269D-10 0.000000000000D+00
    0.100000000000D+01 0.196625000000D+03 0.126790995640D-08-0.170510235620D+01
    0.654719769955D-05 0.408122281078D-02 0.181822106242D-04 0.649313849258D+04
    0.212400000000D+06 0.103842467070D-06 0.265955968063D+01-0.568106770515D-07
    0.951891933731D+00-0.314859375000D+03-0.266543825893D+01-0.195150985965D-08
    0.484305887570D-09 0.000000000000D+00 0.566000000000D+03 0.000000000000D+00
    0.240000000000D+01 0.000000000000D+00 0.869999983166D-08 0.380000000000D+02
    0.212400000000D+06 0.000000000000D+00 0.000000000000D+00 0.000000000000D+00
 7 16 11 08 11 00  0.0-0.251294113696D-04-0.756195106533D-11 0.000000000000D+00
    0.100000000000D+01 0.142765625000D+03 0.938253367733D-09 0.288740996291D+01
    0.463752076030D-05 0.488077057526D-02 0.183316878974D-04 0.649399835396D+04
    0.212400000000D+06 0.423751771450D-07-0.160213490522D+01-0.118277966976D-06
    0.931603223208D+00-0.334031250000D+03-0.262255240290D+01-0.207865801302D-08
   -0.537165232231D-09 0.000000000000D+00 0.566000000000D+03 0.000000000000D+00
    0.240000000000D+01 0.000000000000D+00 0.170999996385D-07 0.120000000000D+02
    0.212400000000D+06 0.000000000000D+00 0.000000000000D+00 0.000000000000D+00
 3 16 11 08 11 00  0.0-0.156567082740D-03 0.350244278025D-10 0.000000000000D+00
    0.100000000000D+01 0.489343750000D+03-0.172221459429D-08 0.554275112469D-01
    0.158119946718D-04 0.584340072237D-03-0.837491825223D-05 0.649351435471D+04
    0.212400000000D+06 0.651925802231D-08-0.244474229413D+00 0.155065208673D-06
    0.111199564571D+00 0.262984375000D+03-0.124302543935D+01 0.274082845222D-08
    0.103932900651D-09 0.000000000000D+00 0.566000000000D+03 0.000000000000D+00
    0.240000000000D+01 0.000000000000D+00 0.670000011027D-08 0.929000000000D+03
    0.212400000000D+06 0.000000000000D+00 0.000000000000D+00 0.000000000000D+00
 5 16 11 08 11 00  0.0-0.522785820067D-03 0.312114778467D-10 0.000000000000D+00
    0.100000000000D+01 0.494656250000D+03-0.136684264877D-08 0.368093803167D+00
    0.158646143973D-04 0.441653770395D-03-0.806385651231D-05 0.649344988441D+04
    0.212400000000D+06 0.875443220139D-07-0.131374777521D+00 0.400468707085D-07
    0.118143335956D+00 0.243734375000D+03-0.257346320659D+01 0.219223417250D-08
    0.118219210019D-09 0.000000000000D+00 0.566000000000D+03 0.000000000000D+00
    0.240000000000D+01 0.000000000000D+00 0.229999996826D-08 0.932000000000D+03
    0.213120000000D+06 0.000000000000D+00 0.000000000000D+00 0.000000000000D+00
 2 16 11 08 11 00  0.0 0.803027884103D-03-0.254614107575D-10 0.000000000000D+00
    0.100000000000D+01 0.412781250000D+03-0.192865176466D-08 0.106494306690D+01
    0.133113935590D-04 0.680809607729D-03-0.125071965158D-04 0.649337018394D+04
    0.212400000000D+06 0.142026692629D-06-0.733144613845D-01 0.628642737865D-07
    0.102637971101D+00 0.387640625000D+03-0.288549227334D+01 0.291297848010D-08
    0.168578450541D-09 0.000000000000D+00 0.566000000000D+03 0.000000000000D+00
    0.240000000000D+01 0.000000000000D+00 0.489999996134D-08 0.883000000000D+03
    0.212400000000D+06 0.000000000000D+00 0.000000000000D+00 0.000000000000D+00
10 16 11 08 11 00  0.0-0.220727059059D-03-0.192104110397D-10 0.000000000000D+00
    0.100000000000D+01 0.624843750000D+02 0.115040506185D-08 0.255034531930D+01
    0.225054100156D-05 0.435932946857D-02 0.209286808968D-04 0.649359039879D+04
    0.212400000000D+06 0.302679836750D-07-0.161149191212D+01-0.151805579662D-06
    0.933167735096D+00-0.426984375000D+03-0.265523171795D+01-0.212151694112D-08
   -0.563952062296D-09 0.000000000000D+00 0.566000000000D+03 0.000000000000D+00
    0.240000000000D+01 0.000000000000D+00 0.879999983994D-08 0.310000000000D+02
    0.212400000000D+06 0.000000000000D+00 0.000000000000D+00 0.000000000000D+00
 1 16 11 08 11 00  0.0-0.189257436432D-03 0.389874799112D-10 0.000000000000D+00
    0.100000000000D+01 0.403375000000D+03-0.233152568883D-08 0.223039565273D+01
    0.132252462208D-04 0.576702295803D-03-0.749900937080D-05 0.649334852600D+04
    0.212400000000D+06-0.251457095146D-07-0.328547885658D+00 0.717118382454D-07
    0.111660253566D+00 0.237765625000D+03-0.282029272972D+01 0.318977572411D-08
    0.639312344211D-10 0.000000000000D+00 0.566000000000D+03 0.000000000000D+00
    0.240000000000D+01 0.000000000000D+00 0.142000002867D-07 0.920000000000D+03
    0.212400000000D+06 0.000000000000D+00 0.000000000000D+00 0.000000000000D+00
 6 16 11 08 11 00  0.0-0.368710025214D-03-0.362945229426D-10 0.000000000000D+00
    0.100000000000D+01 0.224906250000D+03 0.139077221696D-08-0.152235880051D+01
    0.715209171176D-05 0.498702051118D-02 0.183833763003D-04 0.649284886932D+04
    0.212400000000D+06 0.242143869400D-06 0.261886593272D+01-0.372529029846D-08
    0.946435651598D+00-0.323046875000D+03-0.242458912735D+01-0.200865509712D-08
    0.442161274935D-09 0.000000000000D+00 0.566000000000D+03 0.000000000000D+00
    0.240000000000D+01 0.000000000000D+00 0.979999992268D-08 0.101100000000D+04
    0.212400000000D+06 0.000000000000D+00 0.000000000000D+00 0.000000000000D+00
 9 16 11 08 11 00  0.0 0.294790370390D-04-0.462963001269D-10 0.000000000000D+00
    0.100000000000D+01 0.196625000000D+03 0.126790995640D-08-0.170510235620D+01
    0.654719769955D-05 0.408122281078D-02 0.181822106242D-04 0.649313849258D+04
    0.212400000000D+06 0.103842467070D-06 0.265955968063D+01-0.568106770515D-07
    0.951891933731D+00-0.314859375000D+03-0.266543825893D+01-0.195150985965D-08
    0.484305887570D-09 0.000000000000D+00 0.566000000000D+03 0.000000000000D+00
    0.240000000000D+01 0.000000000000D+00 0.869999983166D-08 0.380000000000D+02
    0.212400000000D+06 0.000000000000D+00 0.000000000000D+00 0.000000000000D+00
 7 16 11 08 11 00  0.0-0.251294113696D-04-0.756195106533D-11 0.000000000000D+00
    0.100000000000D+01 0.142765625000D+03 0.938253367733D-09 0.288740996291D+01
    0.463752076030D-05 0.488077057526D-02 0.183316878974D-04 0.649399835396D+04
    0.212400000000D+06 0.423751771450D-07-0.160213490522D+01-0.118277966976D-06
    0.931603223208D+00-0.334031250000D+03-0.262255240290D+01-0.207865801302D-08
   -0.537165232231D-09 0.000000000000D+00 0.566000000000D+03 0.000000000000D+00
    0.240000000000D+01 0.000000000000D+00 0.170999996385D-07 0.120000000000D+02
    0.212400000000D+06 0.000000000000D+00 0.000000000000D+00 0.000000000000D+00
 3 16 11 08 11 00  0.0-0.156567082740D-03 0.350244278025D-10 0.000000000000D+00
    0.100000000000D+01 0.489343750000D+03-0.172221459429D-08 0.554275112469D-01
    0.158119946718D-04 0.584340072237D-03-0.837491825223D-05 0.649351435471D+04
    0.212400000000D+06 0.651925802231D-08-0.244474229413D+00 0.155065208673D-06
    0.111199564571D+00 0.262984375000D+03-0.124302543935D+01 0.274082845222D-08
    0.103932900651D-09 0.000000000000D+00 0.566000000000D+03 0.000000000000D+00
    0.240000000000D+01 0.000000000000D+00 0.670000011027D-08 0.929000000000D+03
    0.212400000000D+06 0.000000000000D+00 0.000000000000D+00 0.000000000000D+00
 5 16 11 08 11 00  0.0-0.522785820067D-03 0.312114778467D-10 0.000000000000D+00
    0.100000000000D+01 0.494656250000D+03-0.136684264877D-08 0.368093803167D+00
    0.158646143973D-04 0.441653770395D-03-0.806385651231D-05 0.649344988441D+04
    0.212400000000D+06 0.875443220139D-07-0.131374777521D+00 0.400468707085D-07
    0.118143335956D+00 0.243734375000D+03-0.257346320659D+01 0.219223417250D-08
    0.118219210019D-09 0.000000000000D+00 0.566000000000D+03 0.000000000000D+00
    0.240000000000D+01 0.000000000000D+00 0.229999996826D-08 0.932000000000D+03
    0.213120000000D+06 0.000000000000D+00 0.000000000000D+00 0.000000000000D+00
 2 16 11 08 11 00  0.0 0.803027884103D-03-0.254614107575D-10 0.000000000000D+00
    0.100000000000D+01 0.412781250000D+03-0.192865176466D-08 0.106494306690D+01
    0.133113935590D-04 0.680809607729D-03-0.125071965158D-04 0.649337018394D+04
    0.212400000000D+06 0.142026692629D-06-0.733144613845D-01 0.628642737865D-07
    0.102637971101D+00 0.387640625000D+03-0.288549227334D+01 0.291297848010D-08
    0.168578450541D-09 0.000000000000D+00 0.566000000000D+03 0.000000000000D+00
    0.240000000000D+01 0.000000000000D+00 0.489999996134D-08 0.883000000000D+03
    0.212400000000D+06 0.000000000000D+00 0.000000000000D+00 0.000000000000D+00
